LEMUR-1                 
1 40044U 14033AL  26192.88323401  .00000888  00000+0  10759-3 0  9990
2 40044  97.7903 342.1444 0048047 358.8650   1.2448 14.85331099649134
LEMUR-2-GREENBERG       
1 42837U 17042N   26190.49536315  .00011532  00000+0  37497-3 0  9996
2 42837  97.3831  11.0293 0007135 283.6729  76.3718 15.32031511491802
LEMUR-2-ANDIS           
1 42838U 17042P   26192.75250957  .00012453  00000+0  35909-3 0  9992
2 42838  97.3677  13.5506 0007128 272.8241  87.2186 15.35830402492222
LEMUR-2-MONSON          
1 42839U 17042Q   26191.46928106  .00009600  00000+0  34677-3 0  9999
2 42839  97.4089  11.9359 0005156 266.7916  93.2733 15.28674858491721
LEMUR-2-FURIAUS         
1 42840U 17042R   26191.74629141  .00012077  00000+0  40490-3 0  9991
2 42840  97.3778  10.1778 0006359 347.2297  12.8782 15.31036825491817
LEMUR-2-PETERG          
1 42841U 17042S   26192.88177078  .00011980  00000+0  35559-3 0  9997
2 42841  97.3991  17.9712 0003092 234.8644 125.2310 15.34947821492228
LEMUR-2-DEMBITZ         
1 42842U 17042T   26192.48491306  .00009065  00000+0  30475-3 0  9990
2 42842  97.3826  13.9535 0005020 291.4687  68.6018 15.31034137492065
LEMUR-2-ZACHARY         
1 42845U 17042W   26192.76525310  .00031651  00000+0  51731-3 0  9991
2 42845  97.3581  24.9630 0002433 265.2719  94.8256 15.52486995493011
LEMUR-2-AMANDA-SVANTE   
1 48269U 21034B   26192.93265476  .00020915  00000+0  60136-3 0  9996
2 48269  97.5758 271.8961 0004497 151.4014 208.7477 15.35822626284858
LEMUR-2-SPECIAL-K       
1 48273U 21034F   26192.77361529  .00163262  00000+0  11555-2 0  9992
2 48273  97.5609 281.5708 0006863 215.5770 144.5037 15.73471129285541
LEMUR-2-EMBRIONOVIS     
1 56970U 23084AQ  26192.86227579  .00009025  00000+0  24216-3 0  9993
2 56970  97.6309 338.0236 0008044 219.4230 140.6430 15.38173955171470
LEMUR-2-DEVERILL-M-T    
1 57391U 23100F   26192.65962183  .00016364  00000+0  39957-3 0  9996
2 57391  99.4462 238.5083 0004684 310.9621  49.1213 15.40974428165011
LEMUR-2-BASS            
1 58259U 23174D   26192.91040592  .00011245  00000+0  24903-3 0  9999
2 58259  97.3849 277.9809 0007807  87.9937 272.2205 15.43920448149170
LEMUR-2-JK0903EM1407    
1 58336U 23174CJ  26192.89726242  .00017244  00000+0  27838-3 0  9990
2 58336  97.3923 284.0857 0003927  44.5380 315.6188 15.52949077149565
LEMUR-2-MJR092620       
1 58340U 23174CN  26192.82982083  .00011838  00000+0  24621-3 0  9995
2 58340  97.3980 283.3273 0005604  41.1217 319.0454 15.45780247149459
LEMUR-2-NIMBUS2000      
1 58899U 24022A   26192.56737305  .00013238  00000+0  32240-3 0  9995
2 58899  97.4092  42.8889 0009120  40.6540 319.5386 15.41012849136024
